[
  {
    "street": "217 Summit Boulevard",
    "city": "Birmingham",
    "postCode": " AL 35243",
    "phoneNumber": "(205) 909-2570"
  },
  {
    "street": "320 The Bridge Street",
    "city": "Huntsville",
    "postCode": " AL 35806",
    "phoneNumber": "(256) 327-8800"
  },
  {
    "street": "320 West 5th Avenue",
    "city": "Anchorage",
    "postCode": " AK 99501",
    "phoneNumber": "(907) 257-1900"
  },
  {
    "street": "3111 W Chandler Boulevard",
    "city": "Chandler",
    "postCode": " AZ 85226",
    "phoneNumber": "(480) 636-3900"
  },
  {
    "street": "2218 E. Williams Field Road",
    "city": "Gilbert",
    "postCode": " AZ 85295",
    "phoneNumber": "(480) 366-8477"
  },
  {
    "street": "7700 West Arrowhead Towne Ctr",
    "city": "Glendale",
    "postCode": " AZ 85308",
    "phoneNumber": "(623) 707-2860"
  },
  {
    "street": "7014 East Camelback Road",
    "city": "Scottsdale",
    "postCode": " AZ 85251",
    "phoneNumber": "(602) 606-1470"
  },
  {
    "street": "15169 North Scottsdale Road",
    "city": "Scottsdale",
    "postCode": " AZ 85254",
    "phoneNumber": "(480) 627-5501"
  },
  {
    "street": "2905 East Skyline Drive",
    "city": "Tucson",
    "postCode": " AZ 85718",
    "phoneNumber": "(520) 209-7440"
  },
  {
    "street": "17711 Chenal Parkway",
    "city": "Little Rock",
    "postCode": " AR 72223",
    "phoneNumber": "(501) 821-5130"
  },
  {
    "street": "2701 Ming Avenue",
    "city": "Bakersfield",
    "postCode": " CA 93304",
    "phoneNumber": "(661) 396-3480"
  },
  {
    "street": "1823 4th Street",
    "city": "Berkeley",
    "postCode": " CA 94710",
    "phoneNumber": "(510) 898-3341"
  },
  {
    "street": "1016C Brea Mall",
    "city": "Brea",
    "postCode": " CA 92821",
    "phoneNumber": "(714) 989-5550"
  },
  {
    "street": "1301 Burlingame Avenue",
    "city": "Burlingame",
    "postCode": " CA 94010",
    "phoneNumber": "(650) 645-8930"
  },
  {
    "street": "6600 Topanga Canyon Boulevard",
    "city": "Canoga Park",
    "postCode": " CA 91303",
    "phoneNumber": "(818) 577-1800"
  },
  {
    "street": "1923 Calle Barcelona",
    "city": "Carlsbad",
    "postCode": " CA 92009",
    "phoneNumber": "(760) 697-9800"
  },
  {
    "street": "242 Los Cerritos Center",
    "city": "Cerritos",
    "postCode": " CA 90703",
    "phoneNumber": "(562) 356-1555"
  },
  {
    "street": "2015 Birch Road",
    "city": "Chula Vista",
    "postCode": " CA 91915",
    "phoneNumber": "(619) 205-6400"
  },
  {
    "street": "1520 Redwood Highway",
    "city": "Corte Madera",
    "postCode": " CA 94925",
    "phoneNumber": "(415) 413-9120"
  },
  {
    "street": "3333 Bear Street",
    "city": "Costa Mesa",
    "postCode": " CA 92626",
    "phoneNumber": "(714) 424-6331"
  },
  {
    "street": "One Infinite Loop",
    "city": "Cupertino",
    "postCode": " CA 95014",
    "phoneNumber": "(408) 606-5775"
  },
  {
    "street": "10600 North Tantau Avenue",
    "city": "Cupertino",
    "postCode": " CA 95014",
    "phoneNumber": "(408) 961-1560"
  },
  {
    "street": "5640 Bay Street",
    "city": "Emeryville",
    "postCode": " CA 94608",
    "phoneNumber": "(510) 350-2400"
  },
  {
    "street": "272 E Via Rancho Parkway",
    "city": "Escondido",
    "postCode": " CA 92025",
    "phoneNumber": "(760) 317-2484"
  },
  {
    "street": "645 E. Shaw Avenue",
    "city": "Fresno",
    "postCode": " CA 93710",
    "phoneNumber": "(559) 244-3400"
  },
  {
    "street": "2126 Glendale Galleria",
    "city": "Glendale",
    "postCode": " CA 91210",
    "phoneNumber": "(818) 502-8310"
  },
  {
    "street": "877 Americana Way",
    "city": "Glendale",
    "postCode": " CA 91210",
    "phoneNumber": "(818) 254-1070"
  },
  {
    "street": "930 Spectrum Center Drive",
    "city": "Irvine",
    "postCode": " CA 92618",
    "phoneNumber": "(949) 255-1500"
  },
  {
    "street": "189 The Grove Drive",
    "city": "Los Angeles",
    "postCode": " CA 90036",
    "phoneNumber": "(323) 617-9800"
  },
  {
    "street": "8500 Beverly Boulevard",
    "city": "Los Angeles",
    "postCode": " CA 90048",
    "phoneNumber": "(424) 239-3880"
  },
  {
    "street": "10250 Santa Monica Boulevard",
    "city": "Los Angeles",
    "postCode": " CA 90067",
    "phoneNumber": "(424) 204-4290"
  },
  {
    "street": "23 N. Santa Cruz Avenue",
    "city": "Los Gatos",
    "postCode": " CA 95030",
    "phoneNumber": "(408) 399-3880"
  },
  {
    "street": "3200 Sepulveda Boulevard",
    "city": "Manhattan Beach",
    "postCode": " CA 90266",
    "phoneNumber": "(310) 421-3720"
  },
  {
    "street": "936C Shops at Mission Viejo",
    "city": "Mission Viejo",
    "postCode": " CA 92691",
    "phoneNumber": "(949) 325-6426"
  },
  {
    "street": "3401 Dale Road",
    "city": "Modesto",
    "postCode": " CA 95356",
    "phoneNumber": "(209) 342-1500"
  },
  {
    "street": "240 Del Monte Center",
    "city": "Monterey",
    "postCode": " CA 93940",
    "phoneNumber": "(831) 647-4480"
  },
  {
    "street": "1113 Newport Center Drive",
    "city": "Newport Beach",
    "postCode": " CA 92660",
    "phoneNumber": "(949) 629-9717"
  },
  {
    "street": "9301 Tampa Avenue",
    "city": "Northridge",
    "postCode": " CA 91324",
    "phoneNumber": "(818) 477-9010"
  },
  {
    "street": "73445 El Paseo",
    "city": "Palm Desert",
    "postCode": " CA 92260",
    "phoneNumber": "(760) 862-9710"
  },
  {
    "street": "379 Stanford Shopping Center",
    "city": "Palo Alto",
    "postCode": " CA 94304",
    "phoneNumber": "(650) 798-6180"
  },
  {
    "street": "340 University Avenue",
    "city": "Palo Alto",
    "postCode": " CA 94301",
    "phoneNumber": "(650) 798-2800"
  },
  {
    "street": "54 West Colorado Boulevard",
    "city": "Pasadena",
    "postCode": " CA 91105",
    "phoneNumber": "(626) 463-6223"
  },
  {
    "street": "One Stoneridge Mall",
    "city": "Pleasanton",
    "postCode": " CA 94588",
    "phoneNumber": "(925) 398-1962"
  },
  {
    "street": "12461 South Main Street",
    "city": "Rancho Cucamonga",
    "postCode": " CA 91739",
    "phoneNumber": "(909) 803-5220"
  },
  {
    "street": "1151 Galleria Boulevard",
    "city": "Roseville",
    "postCode": " CA 95678",
    "phoneNumber": "(916) 872-2506"
  },
  {
    "street": "1689 Arden Way",
    "city": "Sacramento",
    "postCode": " CA 95815",
    "phoneNumber": "(916) 830-5610"
  },
  {
    "street": "4305 La Jolla Village Drive",
    "city": "San Diego",
    "postCode": " CA 92122",
    "phoneNumber": "(858) 795-6870"
  },
  {
    "street": "7007 Friars Road",
    "city": "San Diego",
    "postCode": " CA 92108",
    "phoneNumber": "(619) 682-3477"
  },
  {
    "street": "2125 Chestnut Street",
    "city": "San Francisco",
    "postCode": " CA 94123",
    "phoneNumber": "(415) 848-4445"
  },
  {
    "street": "3251 20th Avenue",
    "city": "San Francisco",
    "postCode": " CA 94132",
    "phoneNumber": "(415) 571-2780"
  },
  {
    "street": "300 Post Street",
    "city": "San Francisco",
    "postCode": " CA 94108",
    "phoneNumber": "(415) 486-4800"
  },
  {
    "street": "925 Blossom Hill Road",
    "city": "San Jose",
    "postCode": " CA 95123",
    "phoneNumber": "(408) 960-0110"
  },
  {
    "street": "899 Higuera Street",
    "city": "San Luis Obispo",
    "postCode": " CA 93401",
    "phoneNumber": "(805) 542-8800"
  },
  {
    "street": "60 31st Avenue",
    "city": "Suite K03",
    "postCode": "Suite K03",
    "phoneNumber": "San Mateo, CA 94403"
  },
  {
    "street": "928 State Street",
    "city": "Santa Barbara",
    "postCode": " CA 93101",
    "phoneNumber": "(805) 560-1500"
  },
  {
    "street": "2855 Stevens Creek Boulevard",
    "city": "Santa Clara",
    "postCode": " CA 95050",
    "phoneNumber": "(408) 551-2150"
  },
  {
    "street": "1415 Third Street Promenade",
    "city": "Santa Monica",
    "postCode": " CA 90401",
    "phoneNumber": "(310) 633-2670"
  },
  {
    "street": "1071 Santa Rosa Plaza",
    "city": "Santa Rosa",
    "postCode": " CA 95401",
    "phoneNumber": "(707) 508-3500"
  },
  {
    "street": "14006 Riverside Drive",
    "city": "Sherman Oaks",
    "postCode": " CA 91423",
    "phoneNumber": "(818) 464-3080"
  },
  {
    "street": "40764 Winchester Road",
    "city": "Temecula",
    "postCode": " CA 92591",
    "phoneNumber": "(951) 326-2400"
  },
  {
    "street": "432 West Hillcrest Drive",
    "city": "Thousand Oaks",
    "postCode": " CA 91360",
    "phoneNumber": "(805) 277-5040"
  },
  {
    "street": "24201 West Valencia Boulevard",
    "city": "Valencia",
    "postCode": " CA 91355",
    "phoneNumber": "(661) 678-1490"
  },
  {
    "street": "1200 S. Main Street",
    "city": "Walnut Creek",
    "postCode": " CA 94596",
    "phoneNumber": "(925) 949-5463"
  },
  {
    "street": "1755 29th Street",
    "city": "Boulder",
    "postCode": " CO 80301",
    "phoneNumber": "(720) 479-9451"
  },
  {
    "street": "One West Flatiron Crossing Dr",
    "city": "Broomfield",
    "postCode": " CO 80021",
    "phoneNumber": "(720) 479-0465"
  },
  {
    "street": "1685 Briargate Parkway",
    "city": "Suite 315",
    "postCode": "Suite 315",
    "phoneNumber": "Colorado Springs, CO 80920"
  },
  {
    "street": "3000 E 1st Avenue",
    "city": "Denver",
    "postCode": " CO 80206",
    "phoneNumber": "(303) 583-7310"
  },
  {
    "street": "7301 S Santa Fe Drive",
    "city": "Littleton",
    "postCode": " CO 80120",
    "phoneNumber": "(303) 256-2580"
  },
  {
    "street": "8405 Park Meadows Center Drive",
    "city": "Lone Tree",
    "postCode": " CO 80124",
    "phoneNumber": "(303) 256-1501"
  },
  {
    "street": "Seven Backus Avenue",
    "city": "Danbury",
    "postCode": " CT 06810",
    "phoneNumber": "(203) 546-6340"
  },
  {
    "street": "500 Westfarms Mall",
    "city": "Farmington",
    "postCode": " CT 06032",
    "phoneNumber": "(860) 221-0800"
  },
  {
    "street": "356 Greenwich Avenue",
    "city": "Greenwich",
    "postCode": " CT 06830",
    "phoneNumber": "(203) 302-6691"
  },
  {
    "street": "65 Broadway",
    "city": "New Haven",
    "postCode": " CT 06511",
    "phoneNumber": "(203) 498-8950"
  },
  {
    "street": "100 N. Water Street",
    "city": "Norwalk",
    "postCode": " CT 06854",
    "phoneNumber": "(203) 658-1801"
  },
  {
    "street": "401 Evergreen Walk",
    "city": "South Windsor",
    "postCode": " CT 06074",
    "phoneNumber": "(860) 512-2070"
  },
  {
    "street": "5065 Main Street",
    "city": "Trumbull",
    "postCode": " CT 06611",
    "phoneNumber": "(203) 666-3928"
  },
  {
    "street": "125 Christiana Mall",
    "city": "Newark",
    "postCode": " DE 19702",
    "phoneNumber": "(302) 533-3514"
  },
  {
    "street": "801 K Street NW",
    "city": "Washington",
    "postCode": " DC 20001",
    "phoneNumber": "(202) 609-6400"
  },
  {
    "street": "1229 Wisconsin Avenue NW",
    "city": "Washington",
    "postCode": " DC 20007",
    "phoneNumber": "(202) 572-1460"
  },
  {
    "street": "451 E Altamonte Drive",
    "city": "Altamonte Springs",
    "postCode": " FL 32701",
    "phoneNumber": "(407) 551-0404"
  },
  {
    "street": "19501 Biscayne Boulevard",
    "city": "Aventura",
    "postCode": " FL 33180",
    "phoneNumber": "(305) 914-9826"
  },
  {
    "street": "6000 Glades Road",
    "city": "Boca Raton",
    "postCode": " FL 33431",
    "phoneNumber": "(561) 226-0270"
  },
  {
    "street": "459 Brandon Town Center Drive",
    "city": "Brandon",
    "postCode": " FL 33511",
    "phoneNumber": "(813) 413-3400"
  },
  {
    "street": "23151 Fashion Drive",
    "city": "Estero",
    "postCode": " FL 33928",
    "phoneNumber": "(239) 949-8860"
  },
  {
    "street": "2388 E. Sunrise Boulevard",
    "city": "Fort Lauderdale",
    "postCode": " FL 33304",
    "phoneNumber": "(954) 331-4501"
  },
  {
    "street": "4835 River City Drive",
    "city": "Jacksonville",
    "postCode": " FL 32246",
    "phoneNumber": "(904) 380-3080"
  },
  {
    "street": "7535 Dadeland Mall",
    "city": "Miami",
    "postCode": " FL 33156",
    "phoneNumber": "(305) 341-9812"
  },
  {
    "street": "701 S. Miami Avenue",
    "city": "Miami",
    "postCode": " FL 33130",
    "phoneNumber": "(786) 843-4350"
  },
  {
    "street": "8888 SW 136th Street",
    "city": "Miami",
    "postCode": " FL 33176",
    "phoneNumber": "(305) 234-4565"
  },
  {
    "street": "1021 Lincoln Road",
    "city": "Miami Beach",
    "postCode": " FL 33139",
    "phoneNumber": "(305) 421-0400"
  },
  {
    "street": "5555 Tamiami Trail North",
    "city": "Naples",
    "postCode": " FL 34108",
    "phoneNumber": "(239) 254-4240"
  },
  {
    "street": "4200 Conroy Road",
    "city": "Orlando",
    "postCode": " FL 32839",
    "phoneNumber": "(407) 352-5551"
  },
  {
    "street": "8001 S. Orange Blossom Trail",
    "city": "Orlando",
    "postCode": " FL 32809",
    "phoneNumber": "(407) 563-1020"
  },
  {
    "street": "3101 PGA Boulevard",
    "city": "Palm Beach Gardens",
    "postCode": " FL 33410",
    "phoneNumber": "(561) 273-2160"
  },
  {
    "street": "140 University Town Center Dr",
    "city": "Sarasota",
    "postCode": " FL 34243",
    "phoneNumber": "(941) 358-4600"
  },
  {
    "street": "2223 N West Shore Boulevard",
    "city": "Tampa",
    "postCode": " FL 33607",
    "phoneNumber": "(813) 393-4720"
  },
  {
    "street": "10300 W. Forest Hill Boulevard",
    "city": "Wellington",
    "postCode": " FL 33414",
    "phoneNumber": "(561) 273-2940"
  },
  {
    "street": "8130 Avalon Boulevard",
    "city": "Alpharetta",
    "postCode": " GA 30009",
    "phoneNumber": "(770) 510-1670"
  },
  {
    "street": "4400 Ashford Dunwoody Road",
    "city": "Atlanta",
    "postCode": " GA 30346",
    "phoneNumber": "(678) 459-9800"
  },
  {
    "street": "3393 Peachtree Road NE",
    "city": "Atlanta",
    "postCode": " GA 30326",
    "phoneNumber": "(404) 926-3085"
  },
  {
    "street": "2860 Cumberland Mall",
    "city": "Suite 1153",
    "postCode": "Suite 1153",
    "phoneNumber": "Atlanta, GA 30339"
  },
  {
    "street": "3450 Wrightsboro Road",
    "city": "Augusta",
    "postCode": " GA 30909",
    "phoneNumber": "(706) 731-1800"
  },
  {
    "street": "3333 Buford Drive",
    "city": "Buford",
    "postCode": " GA 30519",
    "phoneNumber": "(678) 288-3400"
  },
  {
    "street": "2301 Kalakaua Avenue",
    "city": "Honolulu",
    "postCode": " HI 96815",
    "phoneNumber": "(808) 931-2480"
  },
  {
    "street": "4211 Waialae Avenue",
    "city": "Honolulu",
    "postCode": " HI 96816",
    "phoneNumber": "(808) 738-4400"
  },
  {
    "street": "1450 Ala Moana Boulevard",
    "city": "Honolulu",
    "postCode": " HI 96814",
    "phoneNumber": "(808) 983-7650"
  },
  {
    "street": "350 North Milwaukee Street",
    "city": "#1083",
    "postCode": "#1083",
    "phoneNumber": "Boise, ID 83704"
  },
  {
    "street": "801 W. North Avenue",
    "city": "Chicago",
    "postCode": " IL 60642",
    "phoneNumber": "(312) 777-4200"
  },
  {
    "street": "401 North Michigan Avenue",
    "city": "Chicago",
    "postCode": " IL 60611",
    "phoneNumber": "(312) 529-9500"
  },
  {
    "street": "20530 N. Rand Road",
    "city": "Deer Park",
    "postCode": " IL 60010",
    "phoneNumber": "(847) 847-0400"
  },
  {
    "street": "120 West Jefferson Avenue",
    "city": "Naperville",
    "postCode": " IL 60540",
    "phoneNumber": "(630) 536-5400"
  },
  {
    "street": "1056 Northbrook Court",
    "city": "Northbrook",
    "postCode": " IL 60062",
    "phoneNumber": "(847) 205-2020"
  },
  {
    "street": "70 Oakbrook Center",
    "city": "Oak Brook",
    "postCode": " IL 60523",
    "phoneNumber": "(630) 481-3470"
  },
  {
    "street": "288 Orland Square Drive",
    "city": "Orland Park",
    "postCode": " IL 60462",
    "phoneNumber": "(708) 645-5401"
  },
  {
    "street": "N311 Woodfield Mall",
    "city": "Schaumburg",
    "postCode": " IL 60173",
    "phoneNumber": "(630) 237-2160"
  },
  {
    "street": "4999 Old Orchard Center",
    "city": "Skokie",
    "postCode": " IL 60077",
    "phoneNumber": "(847) 983-9230"
  },
  {
    "street": "8702 Keystone Crossing",
    "city": "Indianapolis",
    "postCode": " IN 46240",
    "phoneNumber": "(317) 814-3740"
  },
  {
    "street": "6501 North Grape Road",
    "city": "Mishawaka",
    "postCode": " IN 46545",
    "phoneNumber": "(574) 277-9500"
  },
  {
    "street": "101 Jordan Creek Parkway",
    "city": "West Des Moines",
    "postCode": " IA 50266",
    "phoneNumber": "(515) 440-9900"
  },
  {
    "street": "4529 West 119th Street",
    "city": "Leawood",
    "postCode": " KS 66209",
    "phoneNumber": "(913) 234-9800"
  },
  {
    "street": "4078 Finn Way",
    "city": "Suite 120",
    "postCode": "Suite 120",
    "phoneNumber": "Lexington, KY 40517"
  },
  {
    "street": "7900 Shelbyville Road",
    "city": "Louisville",
    "postCode": " KY 40222",
    "phoneNumber": "(502) 326-2840"
  },
  {
    "street": "6401 Bluebonnet Boulevard",
    "city": "Baton Rouge",
    "postCode": " LA 70836",
    "phoneNumber": "(225) 765-3500"
  },
  {
    "street": "3301 Veterans Memorial Blvd",
    "city": "Metairie",
    "postCode": " LA 70002",
    "phoneNumber": "(504) 830-1400"
  },
  {
    "street": "364 Maine Mall Road",
    "city": "South Portland",
    "postCode": " ME 04106",
    "phoneNumber": "(207) 771-9400"
  },
  {
    "street": "1735 Annapolis Mall",
    "city": "Annapolis",
    "postCode": " MD 21401",
    "phoneNumber": "(410) 972-3290"
  },
  {
    "street": "4860 Bethesda Avenue",
    "city": "Bethesda",
    "postCode": " MD 20814",
    "phoneNumber": "(301) 634-0880"
  },
  {
    "street": "7101 Democracy Boulevard",
    "city": "Bethesda",
    "postCode": " MD 20817",
    "phoneNumber": "(301) 634-9930"
  },
  {
    "street": "10300 Little Patuxent Parkway",
    "city": "Columbia",
    "postCode": " MD 21044",
    "phoneNumber": "(410) 423-1801"
  },
  {
    "street": "825 Dulaney Valley Road",
    "city": "Towson",
    "postCode": " MD 21204",
    "phoneNumber": "(410) 427-0360"
  },
  {
    "street": "815 Boylston Street",
    "city": "Boston",
    "postCode": " MA 02116",
    "phoneNumber": "(617) 385-9400"
  },
  {
    "street": "250 Granite Street",
    "city": "Braintree",
    "postCode": " MA 02184",
    "phoneNumber": "(781) 817-1270"
  },
  {
    "street": "75 Middlesex Turnpike",
    "city": "Burlington",
    "postCode": " MA 01803",
    "phoneNumber": "(781) 653-0970"
  },
  {
    "street": "100 CambridgeSide Place",
    "city": "Cambridge",
    "postCode": " MA 02141",
    "phoneNumber": "(617) 528-7970"
  },
  {
    "street": "199 Boylston Street",
    "city": "Chestnut Hill",
    "postCode": " MA 02467",
    "phoneNumber": "(617) 454-9940"
  },
  {
    "street": "508 Legacy Place",
    "city": "Dedham",
    "postCode": " MA 02026",
    "phoneNumber": "(781) 471-3800"
  },
  {
    "street": "94 Derby Street",
    "city": "Suite #271",
    "postCode": "Suite #271",
    "phoneNumber": "Hingham, MA 02043"
  },
  {
    "street": "50 Holyoke Street",
    "city": "Holyoke",
    "postCode": " MA 01040",
    "phoneNumber": "(413) 493-3878"
  },
  {
    "street": "1220 Market Street",
    "city": "Lynnfield",
    "postCode": " MA 01940",
    "phoneNumber": "(978) 326-0970"
  },
  {
    "street": "601 Donald Lynch Boulevard",
    "city": "Marlborough",
    "postCode": " MA 01752",
    "phoneNumber": "(978) 838-5000"
  },
  {
    "street": "1245 Worcester Street",
    "city": "Natick",
    "postCode": " MA 01760",
    "phoneNumber": "(508) 903-2800"
  },
  {
    "street": "100 Briarwood Circle",
    "city": "Ann Arbor",
    "postCode": " MI 48108",
    "phoneNumber": "(734) 780-2471"
  },
  {
    "street": "17360 Hall Road",
    "city": "Clinton Township",
    "postCode": " MI 48038",
    "phoneNumber": "(586) 840-0500"
  },
  {
    "street": "3195 28th Street",
    "city": "Grand Rapids",
    "postCode": " MI 49512",
    "phoneNumber": "(616) 956-1420"
  },
  {
    "street": "3025 Preyde Boulevard",
    "city": "Lansing",
    "postCode": " MI 48912",
    "phoneNumber": "(517) 374-4920"
  },
  {
    "street": "27500 Novi Road",
    "city": "Novi",
    "postCode": " MI 48377",
    "phoneNumber": "(248) 675-0320"
  },
  {
    "street": "2800 W Big Beaver Road",
    "city": "Troy",
    "postCode": " MI 48084",
    "phoneNumber": "(248) 822-0081"
  },
  {
    "street": "114 West Market",
    "city": "Bloomington",
    "postCode": " MN 55425",
    "phoneNumber": "(952) 229-5630"
  },
  {
    "street": "1560 Southdale Center",
    "city": "Edina",
    "postCode": " MN 55435",
    "phoneNumber": "(952) 656-0140"
  },
  {
    "street": "12531 Wayzata Boulevard",
    "city": "Minnetonka",
    "postCode": " MN 55305",
    "phoneNumber": "(952) 486-4861"
  },
  {
    "street": "1595 Highway 36 W",
    "city": "Space 500",
    "postCode": "Space 500",
    "phoneNumber": "Roseville, MN 55113"
  },
  {
    "street": "1000 Highland Colony Parkway",
    "city": "Ridgeland",
    "postCode": " MS 39157",
    "phoneNumber": "(601) 607-4521"
  },
  {
    "street": "227 Nichols Road",
    "city": "Kansas City",
    "postCode": " MO 64112",
    "phoneNumber": "(816) 448-9200"
  },
  {
    "street": "131 West County Center",
    "city": "St. Louis",
    "postCode": " MO 63131",
    "phoneNumber": "(314) 288-1830"
  },
  {
    "street": "2440 Saint Louis Galleria",
    "city": "St. Louis",
    "postCode": " MO 63117",
    "phoneNumber": "(314) 290-0400"
  },
  {
    "street": "17170 Davenport Street",
    "city": "Omaha",
    "postCode": " NE 68118",
    "phoneNumber": "(402) 970-4477"
  },
  {
    "street": "1985 Festival Plaza Drive",
    "city": "Las Vegas",
    "postCode": " NV 89135",
    "phoneNumber": "(702) 677-3940"
  },
  {
    "street": "3500 Las Vegas Blvd South",
    "city": "Caesars Palace",
    "postCode": "Caesars Palace",
    "phoneNumber": "Las Vegas, NV 89109"
  },
  {
    "street": "3200 Las Vegas Boulevard South",
    "city": "Las Vegas",
    "postCode": " NV 89109",
    "phoneNumber": "(702) 577-9740"
  },
  {
    "street": "6671 Las Vegas Boulevard South",
    "city": "Las Vegas",
    "postCode": " NV 89119",
    "phoneNumber": "(702) 221-8826"
  },
  {
    "street": "13945 South Virginia Street",
    "city": "Reno",
    "postCode": " NV 89511",
    "phoneNumber": "(775) 333-5460"
  },
  {
    "street": "1500 S Willow Street",
    "city": "Manchester",
    "postCode": " NH 03103",
    "phoneNumber": "(603) 391-0180"
  },
  {
    "street": "310 Daniel Webster Highway",
    "city": "Nashua",
    "postCode": " NH 03060",
    "phoneNumber": "(603) 521-3400"
  },
  {
    "street": "99 Rockingham Park Boulevard",
    "city": "Salem",
    "postCode": " NH 03079",
    "phoneNumber": "(603) 328-3140"
  },
  {
    "street": "400 Commons Way",
    "city": "Bridgewater",
    "postCode": " NJ 08807",
    "phoneNumber": "(908) 547-3800"
  },
  {
    "street": "2000 Route 38",
    "city": "Cherry Hill",
    "postCode": " NJ 08002",
    "phoneNumber": "(856) 792-9480"
  },
  {
    "street": "55 Parsonage Road",
    "city": "Edison",
    "postCode": " NJ 08837",
    "phoneNumber": "(732) 623-7700"
  },
  {
    "street": "3710 Route 9 South",
    "city": "Freehold",
    "postCode": " NJ 07728",
    "phoneNumber": "(732) 358-8426"
  },
  {
    "street": "150 Quaker Bridge Mall",
    "city": "Lawrence Township",
    "postCode": " NJ 08648",
    "phoneNumber": "(609) 606-9030"
  },
  {
    "street": "500 Route 73 South",
    "city": "Marlton",
    "postCode": " NJ 08053",
    "phoneNumber": "(856) 355-4940"
  },
  {
    "street": "1 Garden State Plaza",
    "city": "Paramus",
    "postCode": " NJ 07652",
    "phoneNumber": "(201) 975-9500"
  },
  {
    "street": "301 Mt. Hope Avenue",
    "city": "Rockaway",
    "postCode": " NJ 07866",
    "phoneNumber": "(973) 384-9220"
  },
  {
    "street": "1200 Morris Turnpike",
    "city": "Short Hills",
    "postCode": " NJ 07078",
    "phoneNumber": "(973) 564-5813"
  },
  {
    "street": "1400 Willowbrook Mall",
    "city": "Wayne",
    "postCode": " NJ 07470",
    "phoneNumber": "(973) 339-2800"
  },
  {
    "street": "441 Chestnut Ridge Road",
    "city": "Woodcliff Lake",
    "postCode": " NJ 07677",
    "phoneNumber": "(201) 474-4180"
  },
  {
    "street": "2240 Q Street NE",
    "city": "Albuquerque",
    "postCode": " NM 87110",
    "phoneNumber": "(505) 837-6480"
  },
  {
    "street": "1 Crossgates Mall Road",
    "city": "Albany",
    "postCode": " NY 12203",
    "phoneNumber": "(518) 389-0140"
  },
  {
    "street": "247 Bedford Avenue",
    "city": "Brooklyn",
    "postCode": " NY 11211",
    "phoneNumber": "(929) 397-2740"
  },
  {
    "street": "123 Flatbush Avenue",
    "city": "Brooklyn",
    "postCode": " NY 11217-1483",
    "phoneNumber": "(718) 637-6200"
  },
  {
    "street": "G116 Walden Galleria",
    "city": "Buffalo",
    "postCode": " NY 14225",
    "phoneNumber": "(716) 706-2000"
  },
  {
    "street": "90-15 Queens Boulevard",
    "city": "Elmhurst",
    "postCode": " NY 11373",
    "phoneNumber": "(718) 489-1540"
  },
  {
    "street": "630 Old Country Road",
    "city": "Garden City",
    "postCode": " NY 11530",
    "phoneNumber": "(516) 739-8540"
  },
  {
    "street": "160 Walt Whitman Road",
    "city": "Huntington Station",
    "postCode": " NY 11746",
    "phoneNumber": "(631) 760-0160"
  },
  {
    "street": "516 Smith Haven Mall",
    "city": "Lake Grove",
    "postCode": " NY 11755",
    "phoneNumber": "(631) 982-2500"
  },
  {
    "street": "1900 Northern Boulevard",
    "city": "Manhasset",
    "postCode": " NY 11030",
    "phoneNumber": "(516) 734-2420"
  },
  {
    "street": "8115 Fashion Drive",
    "city": "Nanuet",
    "postCode": " NY 10954",
    "phoneNumber": "(845) 215-6980"
  },
  {
    "street": "1981 Broadway",
    "city": "New York",
    "postCode": " NY 10023",
    "phoneNumber": "(212) 209-3400"
  },
  {
    "street": "940 Madison Avenue",
    "city": "New York",
    "postCode": " NY 10021",
    "phoneNumber": "(646) 343-2700"
  },
  {
    "street": "103 Prince Street",
    "city": "New York",
    "postCode": " NY 10012",
    "phoneNumber": "(212) 226-3126"
  },
  {
    "street": "767 Fifth Avenue",
    "city": "New York",
    "postCode": " NY 10153",
    "phoneNumber": "(212) 336-1440"
  },
  {
    "street": "185 Greenwich Street",
    "city": "New York",
    "postCode": " NY 10007",
    "phoneNumber": "(646) 802-3800"
  },
  {
    "street": "401 W 14th Street",
    "city": "New York",
    "postCode": " NY 10014",
    "phoneNumber": "(212) 444-3400"
  },
  {
    "street": "45 Grand Central Terminal",
    "city": "New York",
    "postCode": " NY 10017",
    "phoneNumber": "(212) 284-1800"
  },
  {
    "street": "2655 Richmond Avenue",
    "city": "Staten Island",
    "postCode": " NY 10314",
    "phoneNumber": "(718) 568-2230"
  },
  {
    "street": "1 Destiny USA Drive",
    "city": "Syracuse",
    "postCode": " NY 13204",
    "phoneNumber": "(315) 233-5920"
  },
  {
    "street": "7979 Pittsford-Victor Road",
    "city": "Victor",
    "postCode": " NY 14564",
    "phoneNumber": "(585) 421-6070"
  },
  {
    "street": "125 Westchester Avenue",
    "city": "White Plains",
    "postCode": " NY 10601",
    "phoneNumber": "(914) 539-4530"
  },
  {
    "street": "143 Market Street",
    "city": "Yonkers",
    "postCode": " NY 10710",
    "phoneNumber": "(914) 620-0965"
  },
  {
    "street": "6801 Northlake Mall Drive",
    "city": "Charlotte",
    "postCode": " NC 28216",
    "phoneNumber": "(704) 972-0980"
  },
  {
    "street": "4400 Sharon Road",
    "city": "Charlotte",
    "postCode": " NC 28211",
    "phoneNumber": "(704) 972-3280"
  },
  {
    "street": "8030 Renaissance Parkway",
    "city": "Durham",
    "postCode": " NC 27713",
    "phoneNumber": "(919) 474-6940"
  },
  {
    "street": "3320 West Friendly Avenue",
    "city": "Greensboro",
    "postCode": " NC 27410",
    "phoneNumber": "(336) 291-0486"
  },
  {
    "street": "4325 Glenwood Avenue",
    "city": "Raleigh",
    "postCode": " NC 27612",
    "phoneNumber": "(919) 334-3400"
  },
  {
    "street": "3265 West Market Street",
    "city": "Akron",
    "postCode": " OH 44333",
    "phoneNumber": "(330) 865-6280"
  },
  {
    "street": "4422 Cedar Park Drive",
    "city": "Beavercreek",
    "postCode": " OH 45440",
    "phoneNumber": "(937) 431-4200"
  },
  {
    "street": "7875 Montgomery Road",
    "city": "Cincinnati",
    "postCode": " OH 45236",
    "phoneNumber": "(513) 826-3620"
  },
  {
    "street": "4210 The Strand",
    "city": "Columbus",
    "postCode": " OH 43219",
    "phoneNumber": "(614) 934-2810"
  },
  {
    "street": "1500 Polaris Parkway",
    "city": "Columbus",
    "postCode": " OH 43240",
    "phoneNumber": "(614) 987-1430"
  },
  {
    "street": "5001 Monroe Street",
    "city": "Toledo",
    "postCode": " OH 43623",
    "phoneNumber": "(419) 473-4250"
  },
  {
    "street": "267 Crocker Park Boulevard",
    "city": "Westlake",
    "postCode": " OH 44145",
    "phoneNumber": "(440) 788-2800"
  },
  {
    "street": "28849 Chagrin Boulevard",
    "city": "Woodmere",
    "postCode": " OH 44122",
    "phoneNumber": "(216) 535-4560"
  },
  {
    "street": "1901 NW Expressway Street",
    "city": "Oklahoma City",
    "postCode": " OK 73118",
    "phoneNumber": "(405) 767-6600"
  },
  {
    "street": "7021 S. Memorial Drive",
    "city": "Tulsa",
    "postCode": " OK 74133",
    "phoneNumber": "(918) 249-7800"
  },
  {
    "street": "450 SW Yamhill Street",
    "city": "Portland",
    "postCode": " OR 97204",
    "phoneNumber": "(503) 265-2010"
  },
  {
    "street": "7293 SW Bridgeport Road",
    "city": "Tigard",
    "postCode": " OR 97224",
    "phoneNumber": "(503) 670-8400"
  },
  {
    "street": "9585 SW Washington Square Road",
    "city": "Tigard",
    "postCode": " OR 97223",
    "phoneNumber": "(503) 495-2080"
  },
  {
    "street": "61 St. James Place",
    "city": "Ardmore",
    "postCode": " PA 19003",
    "phoneNumber": "(610) 726-9400"
  },
  {
    "street": "160 N. Gulph Road",
    "city": "King of Prussia",
    "postCode": " PA 19406",
    "phoneNumber": "(484) 636-5090"
  },
  {
    "street": "541 Park City Center",
    "city": "Lancaster",
    "postCode": " PA 17601",
    "phoneNumber": "(717) 295-8800"
  },
  {
    "street": "1607 Walnut Street",
    "city": "Philadelphia",
    "postCode": " PA 19103",
    "phoneNumber": "(215) 861-6400"
  },
  {
    "street": "301 South Hills Village",
    "city": "Pittsburgh",
    "postCode": " PA 15241",
    "phoneNumber": "(412) 308-1970"
  },
  {
    "street": "1000 Ross Park Mall Drive",
    "city": "Pittsburgh",
    "postCode": " PA 15237",
    "phoneNumber": "(412) 318-0656"
  },
  {
    "street": "5508 Walnut Street",
    "city": "Pittsburgh",
    "postCode": " PA 15232",
    "phoneNumber": "(412) 316-2460"
  },
  {
    "street": "250 Lehigh Valley Mall",
    "city": "Whitehall",
    "postCode": " PA 18052",
    "phoneNumber": "(610) 266-4860"
  },
  {
    "street": "2500 West Moreland Road",
    "city": "Willow Grove",
    "postCode": " PA 19090",
    "phoneNumber": "(215) 346-8160"
  },
  {
    "street": "20 Providence Place",
    "city": "Providence",
    "postCode": " RI 02903",
    "phoneNumber": "(401) 533-9400"
  },
  {
    "street": "301 King Street",
    "city": "Charleston",
    "postCode": " SC 29401",
    "phoneNumber": "(843) 727-0400"
  },
  {
    "street": "700 Haywood Road",
    "city": "Greenville",
    "postCode": " SC 29607",
    "phoneNumber": "(864) 987-7580"
  },
  {
    "street": "1800 Galleria Boulevard",
    "city": "Franklin",
    "postCode": " TN 37067",
    "phoneNumber": "(615) 435-0620"
  },
  {
    "street": "2031 West Street",
    "city": "Germantown",
    "postCode": " TN 38138",
    "phoneNumber": "(901) 751-6980"
  },
  {
    "street": "7600 Kingston Pike",
    "city": "Knoxville",
    "postCode": " TN 37919",
    "phoneNumber": "(865) 824-2507"
  },
  {
    "street": "2126 Abbott Martin Road",
    "city": "Nashville",
    "postCode": " TN 37215",
    "phoneNumber": "(615) 514-2430"
  },
  {
    "street": "3121 Palm Way",
    "city": "Austin",
    "postCode": " TX 78758",
    "phoneNumber": "(512) 691-4800"
  },
  {
    "street": "2901 S. Capital of Texas Hwy",
    "city": "Austin",
    "postCode": " TX 78746",
    "phoneNumber": "(512) 634-0520"
  },
  {
    "street": "3101 Knox Street",
    "city": "Dallas",
    "postCode": " TX 75205",
    "phoneNumber": "(214) 520-8532"
  },
  {
    "street": "8687 North Central Expressway",
    "city": "Dallas",
    "postCode": " TX 75225",
    "phoneNumber": "(214) 765-0820"
  },
  {
    "street": "13350 Dallas Parkway",
    "city": "Dallas",
    "postCode": " TX 75240",
    "phoneNumber": "(972) 942-7210"
  },
  {
    "street": "8401 Gateway Boulevard West",
    "city": "El Paso",
    "postCode": " TX 79925",
    "phoneNumber": "(915) 774-8020"
  },
  {
    "street": "1620 S. University Drive",
    "city": "Fort Worth",
    "postCode": " TX 76107",
    "phoneNumber": "(817) 840-9801"
  },
  {
    "street": "500 Baybrook Mall",
    "city": "Friendswood",
    "postCode": " TX 77546",
    "phoneNumber": "(281) 204-0500"
  },
  {
    "street": "5085 Westheimer Road",
    "city": "Houston",
    "postCode": " TX 77056",
    "phoneNumber": "(713) 353-5471"
  },
  {
    "street": "2000 Willowbrook Drive",
    "city": "Houston",
    "postCode": " TX 77070",
    "phoneNumber": "(281) 571-4400"
  },
  {
    "street": "303 Memorial City",
    "city": "Houston",
    "postCode": " TX 77024",
    "phoneNumber": "(713) 986-2476"
  },
  {
    "street": "4012 Westheimer Road",
    "city": "Houston",
    "postCode": " TX 77027",
    "phoneNumber": "(832) 325-3500"
  },
  {
    "street": "15900 La Cantera Parkway",
    "city": "San Antonio",
    "postCode": " TX 78256",
    "phoneNumber": "(210) 276-2302"
  },
  {
    "street": "7400 San Pedro Avenue",
    "city": "San Antonio",
    "postCode": " TX 78216",
    "phoneNumber": "(210) 321-4420"
  },
  {
    "street": "260 Grand Avenue",
    "city": "Southlake",
    "postCode": " TX 76092",
    "phoneNumber": "(817) 722-1401"
  },
  {
    "street": "16535 Southwest Freeway",
    "city": "Sugar Land",
    "postCode": " TX 77479",
    "phoneNumber": "(281) 269-3410"
  },
  {
    "street": "1201 Lake Woodlands Drive",
    "city": "The Woodlands",
    "postCode": " TX 77380",
    "phoneNumber": "(281) 203-6870"
  },
  {
    "street": "148 N. East Promontory",
    "city": "Farmington",
    "postCode": " UT 84025",
    "phoneNumber": "(801) 218-9501"
  },
  {
    "street": "6191 S State Street",
    "city": "Murray",
    "postCode": " UT 84107",
    "phoneNumber": "(801) 905-4410"
  },
  {
    "street": "50 South Main Street",
    "city": "Salt Lake City",
    "postCode": " UT 84101",
    "phoneNumber": "(801) 456-9400"
  },
  {
    "street": "2700 Clarendon Boulevard",
    "city": "Arlington",
    "postCode": " VA 22201",
    "phoneNumber": "(703) 236-7970"
  },
  {
    "street": "1100 South Hayes Street",
    "city": "Arlington",
    "postCode": " VA 22202",
    "phoneNumber": "(703) 236-1550"
  },
  {
    "street": "11750 Fair Oaks",
    "city": "Fairfax",
    "postCode": " VA 22033",
    "phoneNumber": "(703) 251-7400"
  },
  {
    "street": "1961 Chain Bridge Road",
    "city": "McLean",
    "postCode": " VA 22102",
    "phoneNumber": "(703) 336-8450"
  },
  {
    "street": "300 Monticello Avenue",
    "city": "Norfolk",
    "postCode": " VA 23510",
    "phoneNumber": "(757) 628-8400"
  },
  {
    "street": "11937 Market Street",
    "city": "Reston",
    "postCode": " VA 20190",
    "phoneNumber": "(571) 449-4800"
  },
  {
    "street": "11800 W. Broad Street",
    "city": "Richmond",
    "postCode": " VA 23233",
    "phoneNumber": "(804) 420-3000"
  },
  {
    "street": "701 Lynnhaven Parkway",
    "city": "Virginia Beach",
    "postCode": " VA 23452",
    "phoneNumber": "(757) 306-2480"
  },
  {
    "street": "15100 Potomac Town Place",
    "city": "Woodbridge",
    "postCode": " VA 22191",
    "phoneNumber": "(703) 986-2030"
  },
  {
    "street": "213 Bellevue Square",
    "city": "Bellevue",
    "postCode": " WA 98004",
    "phoneNumber": "(425) 519-0080"
  },
  {
    "street": "3000 184th Street S.W.",
    "city": "Lynnwood",
    "postCode": " WA 98037",
    "phoneNumber": "(425) 921-1560"
  },
  {
    "street": "2651 NE 49th St",
    "city": "Seattle",
    "postCode": " WA 98105",
    "phoneNumber": "(206) 892-0433"
  },
  {
    "street": "710 West Main Avenue",
    "city": "Spokane",
    "postCode": " WA 99201",
    "phoneNumber": "(509) 458-8080"
  },
  {
    "street": "4502 S Steele Street",
    "city": "Tacoma",
    "postCode": " WA 98409",
    "phoneNumber": "(253) 620-1454"
  },
  {
    "street": "801 Southcenter Mall",
    "city": "Tukwila",
    "postCode": " WA 98188",
    "phoneNumber": "(206) 288-4400"
  },
  {
    "street": "5715 N Centerpark Way",
    "city": "Glendale",
    "postCode": " WI 53217",
    "phoneNumber": "(414) 977-3410"
  },
  {
    "street": "702 North Midvale Boulevard",
    "city": "Madison",
    "postCode": " WI 53705",
    "phoneNumber": "(608) 827-9840"
  },
  {
    "street": "2500 N. Mayfair Road",
    "city": "Wauwatosa",
    "postCode": " WI 53226",
    "phoneNumber": "(414) 290-9780"
  }
]